NORAD_CAT_ID,OBJECT_NAME,OBJECT_TYPE,EPOCH,MEAN_MOTION,ECCENTRICITY,INCLINATION,RA_OF_ASC_NODE,ARG_OF_PERICENTER,MEAN_ANOMALY,BSTAR,MEAN_MOTION_DOT,MEAN_MOTION_DDOT,TLE_LINE0,TLE_LINE1,TLE_LINE2,SEMIMAJOR_AXIS,PERIOD,APOGEE,PERIGEE,DECAYED
52267.0,STARLINK-3748,PAYLOAD,2024-04-21 14:08:05,15.08833172,0.0001445,53.2175,313.6366,118.775,241.3388,3.0409e-05,1.96e-06,0.0,0 STARLINK-3748,1 52267U 22041G   24112.58894917  .00000196  00000-0  30409-4 0  9998,2 52267  53.2175 313.6366 0001445 118.7750 241.3388 15.08833172110636,6917.901,95.438,540.766,538.767,0.0
52267.0,STARLINK-3748,PAYLOAD,2024-04-21 20:29:36,15.08853944,0.0001394,53.2182,312.4392,108.1756,251.9388,0.00024603,3.631e-05,0.0,0 STARLINK-3748,1 52267U 22041G   24112.85389809  .00003631  00000-0  24603-3 0  9992,2 52267  53.2182 312.4392 0001394 108.1756 251.9388 15.08853944111897,6917.838,95.437,540.667,538.738,0.0
52267.0,STARLINK-3748,PAYLOAD,2024-04-21 22:04:59,15.08858068,0.000132,53.2182,312.1424,103.8927,256.2212,0.00028876,4.313e-05,0.0,0 STARLINK-3748,1 52267U 22041G   24112.92013503  .00004313  00000-0  28876-3 0  9999,2 52267  53.2182 312.1424 0001320 103.8927 256.2212 15.08858068110683,6917.825,95.436,540.603,538.777,0.0
52267.0,STARLINK-3748,PAYLOAD,2024-04-21 23:40:22,15.08856775,0.0001356,53.2185,311.8471,105.5212,254.593,0.00025514,3.777e-05,0.0,0 STARLINK-3748,1 52267U 22041G   24112.98637522  .00003777  00000-0  25514-3 0  9997,2 52267  53.2185 311.8471 0001356 105.5212 254.5930 15.08856775110691,6917.829,95.436,540.632,538.756,0.0
52267.0,STARLINK-3748,PAYLOAD,2024-04-22 20:20:25,15.08826205,0.00011,53.2184,307.9833,109.3669,250.7442,7.9212e-05,9.73e-06,0.0,0 STARLINK-3748,1 52267U 22041G   24113.84751669  .00000973  00000-0  79212-4 0  9992,2 52267  53.2184 307.9833 0001100 109.3669 250.7442 15.08826205112045,6917.923,95.438,540.549,539.027,0.0
52267.0,STARLINK-3748,PAYLOAD,2024-04-22 21:55:48,15.08826716,0.0001097,53.2183,307.686,112.0561,248.0548,7.8523e-05,9.62e-06,0.0,0 STARLINK-3748,1 52267U 22041G   24113.91375685  .00000962  00000-0  78523-4 0  9992,2 52267  53.2183 307.6860 0001097 112.0561 248.0548 15.08826716110837,6917.921,95.438,540.545,539.027,0.0
52267.0,STARLINK-3748,PAYLOAD,2024-04-22 23:31:11,15.08827768,0.0001086,53.2185,307.3895,113.9363,246.1743,8.3809e-05,1.046e-05,0.0,0 STARLINK-3748,1 52267U 22041G   24113.97999665  .00001046  00000-0  83809-4 0  9995,2 52267  53.2185 307.3895 0001086 113.9363 246.1743 15.08827768110847,6917.918,95.438,540.534,539.031,0.0
52267.0,STARLINK-3748,PAYLOAD,2024-04-23 20:11:11,15.08842851,0.0001505,53.2179,303.5217,122.8323,237.2814,9.6583e-05,1.25e-05,0.0,0 STARLINK-3748,1 52267U 22041G   24114.84111082  .00001250  00000-0  96583-4 0  9991,2 52267  53.2179 303.5217 0001505 122.8323 237.2814 15.08842851112197,6917.872,95.437,540.778,538.696,0.0
52267.0,STARLINK-3748,PAYLOAD,2024-04-24 18:26:36,15.08840179,0.0001105,53.2174,299.3601,110.9018,249.2092,0.00022884,3.356e-05,0.0,0 STARLINK-3748,1 52267U 22041G   24115.76847378  .00003356  00000-0  22884-3 0  9998,2 52267  53.2174 299.3601 0001105 110.9018 249.2092 15.08840179112334,6917.88,95.438,540.509,538.98,0.0
52267.0,STARLINK-3748,PAYLOAD,2024-04-24 21:37:22,15.08842866,0.0001105,53.2174,298.7653,109.2184,250.8927,0.00025636,3.795e-05,0.0,0 STARLINK-3748,1 52267U 22041G   24115.90095297  .00003795  00000-0  25636-3 0  9994,2 52267  53.2174 298.7653 0001105 109.2184 250.8927 15.08842866111136,6917.872,95.437,540.501,538.972,0.0
52267.0,STARLINK-3748,PAYLOAD,2024-04-25 11:55:50,15.08840472,0.0001319,53.2176,296.0888,111.8151,248.2981,-6.0472e-06,-3.84e-06,0.0,0 STARLINK-3748,1 52267U 22041G   24116.49711500 -.00000384  00000-0 -60472-5 0  9993,2 52267  53.2176 296.0888 0001319 111.8151 248.2981 15.08840472111221,6917.879,95.438,540.656,538.831,0.0
52267.0,STARLINK-3748,PAYLOAD,2024-04-25 18:17:23,15.08840994,0.0001146,53.2187,294.9004,105.6202,254.4917,3.3301e-05,2.42e-06,0.0,0 STARLINK-3748,1 52267U 22041G   24116.76207659  .00000242  00000-0  33301-4 0  9999,2 52267  53.2187 294.9004 0001146 105.6202 254.4917 15.08840994112482,6917.877,95.437,540.535,538.95,0.0
52267.0,STARLINK-3748,PAYLOAD,2024-04-26 14:57:23,15.0884125,0.0001445,53.2201,291.0351,122.2503,237.8629,6.5214e-05,7.5e-06,0.0,0 STARLINK-3748,1 52267U 22041G   24117.62319416  .00000750  00000-0  65214-4 0  9992,2 52267  53.2201 291.0351 0001445 122.2503 237.8629 15.08841250111393,6917.877,95.437,540.741,538.742,0.0
52267.0,STARLINK-3748,PAYLOAD,2024-04-26 18:08:10,15.08842867,0.0001191,53.2191,290.4405,87.6997,272.4131,6.4138e-05,7.33e-06,0.0,0 STARLINK-3748,1 52267U 22041G   24117.75567451  .00000733  00000-0  64138-4 0  9995,2 52267  53.2191 290.4405 0001191  87.6997 272.4131 15.08842867111414,6917.872,95.437,540.561,538.913,0.0
52267.0,STARLINK-3748,PAYLOAD,2024-04-27 11:37:24,15.0884089,0.000119,53.2177,287.1684,85.1413,274.9715,0.00010234,1.341e-05,0.0,0 STARLINK-3748,1 52267U 22041G   24118.48431480  .00001341  00000-0  10234-3 0  9991,2 52267  53.2177 287.1684 0001190  85.1413 274.9715 15.08840890112741,6917.878,95.437,540.566,538.919,0.0
52267.0,STARLINK-3748,PAYLOAD,2024-04-27 17:58:57,15.08838339,0.0001058,53.2172,285.9765,99.4159,260.6953,2.4976e-05,1.1e-06,0.0,0 STARLINK-3748,1 52267U 22041G   24118.74927694  .00000110  00000-0  24976-4 0  9999,2 52267  53.2172 285.9765 0001058  99.4159 260.6953 15.08838339111560,6917.885,95.438,540.482,539.019,0.0
52267.0,STARLINK-3748,PAYLOAD,2024-04-28 11:28:12,15.0882865,0.0001285,53.2183,282.7107,87.9588,272.1551,-3.8495e-05,-9e-06,0.0,0 STARLINK-3748,1 52267U 22041G   24119.47792705 -.00000900  00000-0 -38495-4 0  9993,2 52267  53.2183 282.7107 0001285  87.9588 272.1551 15.08828650112891,6917.915,95.438,540.669,538.891,0.0
52267.0,STARLINK-3748,PAYLOAD,2024-04-28 14:38:59,15.08829824,0.0001275,53.2186,282.1164,91.2591,268.8547,-2.9717e-05,-7.61e-06,0.0,0 STARLINK-3748,1 52267U 22041G   24119.61040598 -.00000761  00000-0 -29717-4 0  9997,2 52267  53.2186 282.1164 0001275  91.2591 268.8547 15.08829824111690,6917.911,95.438,540.659,538.894,0.0
52267.0,STARLINK-3748,PAYLOAD,2024-04-28 17:49:45,15.0883311,0.0001243,53.218,281.5229,85.9856,274.1279,8.2153e-06,-1.57e-06,0.0,0 STARLINK-3748,1 52267U 22041G   24119.74288343 -.00000157  00000-0  82153-5 0  9995,2 52267  53.2180 281.5229 0001243  85.9856 274.1279 15.08833110111716,6917.901,95.438,540.626,538.907,0.0
52267.0,STARLINK-3748,PAYLOAD,2024-04-29 03:22:03,15.08846646,0.0001388,53.219,279.7389,88.9515,271.1636,2.0965e-06,-2.55e-06,0.0,0 STARLINK-3748,1 52267U 22041G   24120.14031436 -.00000255  00000-0  20965-5 0  9992,2 52267  53.2190 279.7389 0001388  88.9515 271.1636 15.08846646112991,6917.86,95.437,540.685,538.765,0.0
52267.0,STARLINK-3748,PAYLOAD,2024-04-29 14:29:46,15.08827326,0.0001565,53.2207,277.661,107.0669,253.0494,7.3614e-05,8.83e-06,0.0,0 STARLINK-3748,1 52267U 22041G   24120.60400678  .00000883  00000-0  73614-4 0  9995,2 52267  53.2207 277.6610 0001565 107.0669 253.0494 15.08827326111842,6917.919,95.438,540.867,538.701,0.0
52267.0,STARLINK-3748,PAYLOAD,2024-04-29 20:51:18,15.08834173,0.0001333,53.2189,276.4669,95.5799,264.5345,8.3345e-05,1.039e-05,0.0,0 STARLINK-3748,1 52267U 22041G   24120.86896332  .00001039  00000-0  83345-4 0  9995,2 52267  53.2189 276.4669 0001333  95.5799 264.5345 15.08834173113101,6917.898,95.438,540.685,538.841,0.0
52267.0,STARLINK-3748,PAYLOAD,2024-04-30 14:20:33,15.08829983,0.0001458,53.2207,273.1967,93.8411,266.2747,9.4227e-05,1.212e-05,0.0,0 STARLINK-3748,1 52267U 22041G   24121.59760906  .00001212  00000-0  94227-4 0  9997,2 52267  53.2207 273.1967 0001458  93.8411 266.2747 15.08829983111990,6917.911,95.438,540.785,538.767,0.0
52267.0,STARLINK-3748,PAYLOAD,2024-04-30 17:31:19,15.08833837,0.0001292,53.2201,272.6012,87.4611,272.6529,8.7794e-05,1.109e-05,0.0,0 STARLINK-3748,1 52267U 22041G   24121.73008681  .00001109  00000-0  87794-4 0  9994,2 52267  53.2201 272.6012 0001292  87.4611 272.6529 15.08833837112012,6917.899,95.438,540.658,538.87,0.0
52267.0,STARLINK-3748,PAYLOAD,2024-05-02 02:54:23,15.08854389,0.0001387,53.2197,266.3565,80.3409,279.774,0.00011619,1.562e-05,0.0,0 STARLINK-3748,1 52267U 22041G   24123.12110912  .00001562  00000-0  11619-3 0  9995,2 52267  53.2197 266.3565 0001387  80.3409 279.7740 15.08854389113447,6917.836,95.437,540.661,538.742,0.0
52267.0,STARLINK-3748,PAYLOAD,2024-05-02 14:02:07,15.08829256,0.0001536,53.2196,264.2749,85.8095,274.3073,-1.7522e-05,-5.67e-06,0.0,0 STARLINK-3748,1 52267U 22041G   24123.58480628 -.00000567  00000-0 -17522-4 0  9995,2 52267  53.2196 264.2749 0001536  85.8095 274.3073 15.08829256112291,6917.913,95.438,540.841,538.716,0.0
52267.0,STARLINK-3748,PAYLOAD,2024-05-02 15:37:30,15.08834455,0.0001335,53.2179,263.9765,96.3542,263.7603,-7.4384e-05,-1.471e-05,0.0,0 STARLINK-3748,1 52267U 22041G   24123.65104435 -.00001471  00000-0 -74384-4 0  9996,2 52267  53.2179 263.9765 0001335  96.3542 263.7603 15.08834455113522,6917.897,95.438,540.686,538.839,0.0
52267.0,STARLINK-3748,PAYLOAD,2024-05-03 02:45:11,15.0884717,0.0001265,53.2191,261.896,83.6132,276.5004,1.1017e-05,-1.13e-06,0.0,0 STARLINK-3748,1 52267U 22041G   24124.11471590 -.00000113  00000-0  11017-4 0  9992,2 52267  53.2191 261.8960 0001265  83.6132 276.5004 15.08847170113598,6917.858,95.437,540.599,538.848,0.0
52267.0,STARLINK-3748,PAYLOAD,2024-05-03 12:17:30,15.08823187,0.0001421,53.2158,260.1105,97.7384,262.377,6.6851e-05,7.76e-06,0.0,0 STARLINK-3748,1 52267U 22041G   24124.51216291  .00000776  00000-0  66851-4 0  9991,2 52267  53.2158 260.1105 0001421  97.7384 262.3770 15.08823187113655,6917.932,95.439,540.78,538.814,0.0
52267.0,STARLINK-3748,PAYLOAD,2024-05-03 15:28:16,15.08827082,0.000155,53.2162,259.5148,101.464,258.6527,9.4371e-05,1.214e-05,0.0,0 STARLINK-3748,1 52267U 22041G   24124.64464091  .00001214  00000-0  94371-4 0  9994,2 52267  53.2162 259.5148 0001550 101.4640 258.6527 15.08827082112453,6917.92,95.438,540.857,538.713,0.0
